PE2_FLT2  (TYVAK-0262)  
1 59104U 24043G   26068.92472008  .00004105  00000+0  36572-3 0  9991
2 59104  97.8241 199.4452 0006851  28.1235 332.0355 14.96566721109803
STARLINK-33905          
1 63881U 25094T   26068.86765432  .00011077  00000+0  93421-3 0  9996
2 63881  70.0019 233.8551 0003400 269.1788  90.8982 14.98346620 47235
